OBJECT_NAME,OBJECT_ID,EPOCH,MEAN_MOTION,ECCENTRICITY,INCLINATION,RA_OF_ASC_NODE,ARG_OF_PERICENTER,MEAN_ANOMALY,EPHEMERIS_TYPE,CLASSIFICATION_TYPE,NORAD_CAT_ID,ELEMENT_SET_NO,REV_AT_EPOCH,BSTAR,MEAN_MOTION_DOT,MEAN_MOTION_DDOT
STARLINK-4728,2022-111W,2024-09-23T02:01:17.448672,15.08842014,.0001383,53.2138,144.8777,89.5569,270.5581,0,U,53793,999,11328,.75166E-4,.909E-5,0
STARLINK-4730,2022-111X,2024-09-23T08:29:31.161696,15.08839346,.000159,53.2164,143.7187,93.3935,266.7239,0,U,53794,999,11332,.10152E-4,-.126E-5,0
STARLINK-4742,2022-111Y,2024-09-23T01:45:22.341600,15.08842069,.0001569,53.2138,144.8120,86.5481,273.5691,0,U,53795,999,11328,.49762E-4,.504E-5,0
STARLINK-4721,2022-111Z,2024-09-23T07:29:23.821728,15.16553802,.0005202,53.2094,121.9955,158.7420,201.3793,0,U,53796,999,11365,.2578E-2,.50964E-3,0
STARLINK-4723,2022-111AA,2024-09-23T09:26:22.922304,15.08846752,.0001431,53.2146,143.2557,79.5204,280.5949,0,U,53797,999,11332,.19971E-3,.2892E-4,0
STARLINK-4712,2022-111AB,2024-09-23T09:31:41.152512,15.08844252,.0001273,53.2146,143.2774,82.9788,277.1349,0,U,53798,999,11332,-.65787E-6,-.298E-5,0
STARLINK-4710,2022-111AC,2024-09-23T08:57:22.417632,15.08854419,.0001448,53.2157,133.8531,81.5310,278.5846,0,U,53799,999,11345,.86586E-4,.1091E-4,0
STARLINK-4720,2022-111AD,2024-09-23T15:01:37.272576,15.08843271,.00014,53.2165,132.5918,97.7000,262.4151,0,U,53800,999,11349,.84655E-4,.106E-4,0
STARLINK-4715,2022-111AE,2024-09-23T08:13:33.037536,15.08845612,.0001464,53.2151,133.6686,91.3965,268.7195,0,U,53801,999,11345,.16618E-3,.2358E-4,0
STARLINK-4726,2022-111AF,2024-09-23T00:32:32.492256,15.08841345,.0001027,53.2154,135.2214,98.6912,261.4197,0,U,53802,999,11340,.15307E-3,.2149E-4,0
STARLINK-4727,2022-111AG,2024-09-23T07:14:39.064992,15.08839902,.000143,53.2130,119.1471,92.5508,267.5648,0,U,53803,999,11365,.30804E-4,.202E-5,0
STARLINK-4729,2022-111AH,2024-09-23T00:21:19.202112,15.08842066,.000139,53.2144,130.1748,87.3144,272.8007,0,U,53804,999,11347,.35257E-4,.273E-5,0
STARLINK-4768,2022-111AK,2024-09-23T06:48:07.094880,15.08843350,.0001735,53.2160,119.0270,94.6152,265.5038,0,U,53806,999,11365,.41936E-4,.379E-5,0
STARLINK-4749,2022-114A,2024-09-23T14:00:01.999872,15.31459491,.0009003,53.2175,137.4135,126.1180,177.8562,0,U,53818,999,585,.51164E-2,.160794E-2,0
STARLINK-4738,2022-114B,2024-09-23T10:52:32.881440,15.08844308,.0001566,53.2173,173.2944,77.1672,282.9495,0,U,53819,999,11248,.19005E-4,.14E-6,0
STARLINK-4758,2022-114C,2024-09-23T00:32:36.131424,15.08847105,.00017,53.2172,175.5757,95.6782,264.4404,0,U,53820,999,11241,.23493E-3,.3454E-4,0
STARLINK-4752,2022-114D,2024-09-23T07:15:59.105088,15.08836627,.00013,53.2166,118.9097,93.3947,266.7194,0,U,53821,999,11323,.17492E-4,-.1E-6,0
STARLINK-4748,2022-114F,2024-09-23T07:50:24.363168,15.08848408,.0001455,53.2166,128.9770,97.9372,262.1785,0,U,53823,999,11309,.23474E-3,.3451E-4,0
STARLINK-4757,2022-114G,2024-09-23T11:15:33.003072,15.12600125,.0004259,53.2131,172.6928,105.5426,254.6038,0,U,53824,999,11240,.28422E-2,.50252E-3,0
STARLINK-4751,2022-114H,2024-09-23T11:29:40.989696,15.08845615,.0001408,53.2176,173.4459,101.8666,258.2484,0,U,53825,999,11248,.10403E-3,.1368E-4,0
STARLINK-4756,2022-114J,2024-09-23T11:03:09.359136,15.08850426,.0001576,53.2157,173.3354,84.1899,275.9273,0,U,53826,999,11248,.21436E-3,.3126E-4,0
STARLINK-4764,2022-114K,2024-09-23T11:19:04.466208,15.08848122,.000105,53.2168,173.4018,82.1849,277.9263,0,U,53827,999,11248,.17911E-3,.2564E-4,0
STARLINK-4760,2022-114L,2024-09-23T10:57:50.951808,15.08850053,.0001542,53.2166,173.3132,88.6766,271.4403,0,U,53828,999,11248,.21802E-3,.3184E-4,0
STARLINK-4759,2022-114M,2024-09-23T11:13:46.055424,15.08856306,.0001287,53.2143,173.3796,93.1127,267.0012,0,U,53829,999,11248,.12562E-2,.1977E-3,0
STARLINK-4761,2022-114N,2024-09-23T10:47:14.592480,15.08842003,.0001246,53.2148,173.2662,84.4039,275.7095,0,U,53830,999,11248,.10574E-3,.1395E-4,0
STARLINK-4649,2022-114P,2024-09-23T11:08:27.769920,15.08844162,.0001652,53.2189,173.3542,88.2292,271.8889,0,U,53831,999,11248,.17034E-3,.2424E-4,0
STARLINK-4747,2022-114Q,2024-09-23T10:36:37.511712,15.08845260,.00014,53.2147,173.2243,89.4304,270.6849,0,U,53832,999,11248,.47102E-4,.462E-5,0
STARLINK-4771,2022-114R,2024-09-23T10:53:55.805568,15.08841863,.0001943,53.2185,173.2944,87.2097,272.9117,0,U,53833,999,11248,.81828E-4,.1014E-4,0
STARLINK-4737,2022-114S,2024-09-23T10:26:00.754080,15.08843159,.0001296,53.2161,173.1748,95.8990,264.2150,0,U,53834,999,11248,.1438E-3,.2002E-4,0
