STARLINK-4728           
1 53793U 22111W   24267.08422973  .00000909  00000+0  75166-4 0  9996
2 53793  53.2138 144.8777 0001383  89.5569 270.5581 15.08842014113282
STARLINK-4730           
1 53794U 22111X   24267.35383289 -.00000126  00000+0  10152-4 0  9999
2 53794  53.2164 143.7187 0001590  93.3935 266.7239 15.08839346113321
STARLINK-4742           
1 53795U 22111Y   24267.07317525  .00000504  00000+0  49762-4 0  9997
2 53795  53.2138 144.8120 0001569  86.5481 273.5691 15.08842069113287
STARLINK-4721           
1 53796U 22111Z   24267.31208127  .00050964  00000+0  25780-2 0  9999
2 53796  53.2094 121.9955 0005202 158.7420 201.3793 15.16553802113650
STARLINK-4723           
1 53797U 22111AA  24267.39332086  .00002892  00000+0  19971-3 0  9993
2 53797  53.2146 143.2557 0001431  79.5204 280.5949 15.08846752113320
STARLINK-4712           
1 53798U 22111AB  24267.39700408 -.00000298  00000+0 -65787-6 0  9990
2 53798  53.2146 143.2774 0001273  82.9788 277.1349 15.08844252113320
STARLINK-4710           
1 53799U 22111AC  24267.37317613  .00001091  00000+0  86586-4 0  9999
2 53799  53.2157 133.8531 0001448  81.5310 278.5846 15.08854419113456
STARLINK-4720           
1 53800U 22111AD  24267.62612584  .00001060  00000+0  84655-4 0  9996
2 53800  53.2165 132.5918 0001400  97.7000 262.4151 15.08843271113495
STARLINK-4715           
1 53801U 22111AE  24267.34274349  .00002358  00000+0  16618-3 0  9993
2 53801  53.2151 133.6686 0001464  91.3965 268.7195 15.08845612113459
STARLINK-4726           
1 53802U 22111AF  24267.02259829  .00002149  00000+0  15307-3 0  9997
2 53802  53.2154 135.2214 0001027  98.6912 261.4197 15.08841345113401
STARLINK-4727           
1 53803U 22111AG  24267.30184103  .00000202  00000+0  30804-4 0  9999
2 53803  53.2130 119.1471 0001430  92.5508 267.5648 15.08839902113655
STARLINK-4729           
1 53804U 22111AH  24267.01480558  .00000273  00000+0  35257-4 0  9996
2 53804  53.2144 130.1748 0001390  87.3144 272.8007 15.08842066113477
STARLINK-4768           
1 53806U 22111AK  24267.28341545  .00000379  00000+0  41936-4 0  9997
2 53806  53.2160 119.0270 0001735  94.6152 265.5038 15.08843350113656
STARLINK-4749           
1 53818U 22114A   24267.58335648  .00160794  00000+0  51164-2 0  9993
2 53818  53.2175 137.4135 0009003 126.1180 177.8562 15.31459491  5851
STARLINK-4738           
1 53819U 22114B   24267.45315835  .00000014  00000+0  19005-4 0  9994
2 53819  53.2173 173.2944 0001566  77.1672 282.9495 15.08844308111943
STARLINK-4758           
1 53820U 22114C   24267.02264041  .00003454  00000+0  23493-3 0  9997
2 53820  53.2172 175.5757 0001700  95.6782 264.4404 15.08847105112414
STARLINK-4752           
1 53821U 22114D   24267.30276742 -.00000010  00000+0  17492-4 0  9999
2 53821  53.2166 118.9097 0001300  93.3947 266.7194 15.08836627113239
STARLINK-4748           
1 53823U 22114F   24267.32667087  .00003451  00000+0  23474-3 0  9996
2 53823  53.2166 128.9770 0001455  97.9372 262.1785 15.08848408113093
STARLINK-4757           
1 53824U 22114G   24267.46913198  .00050252  00000+0  28422-2 0  9997
2 53824  53.2131 172.6928 0004259 105.5426 254.6038 15.12600125112406
STARLINK-4751           
1 53825U 22114H   24267.47894664  .00001368  00000+0  10403-3 0  9990
2 53825  53.2176 173.4459 0001408 101.8666 258.2484 15.08845615112485
STARLINK-4756           
1 53826U 22114J   24267.46052499  .00003126  00000+0  21436-3 0  9994
2 53826  53.2157 173.3354 0001576  84.1899 275.9273 15.08850426112483
STARLINK-4764           
1 53827U 22114K   24267.47157947  .00002564  00000+0  17911-3 0  9998
2 53827  53.2168 173.4018 0001050  82.1849 277.9263 15.08848122112485
STARLINK-4760           
1 53828U 22114L   24267.45683972  .00003184  00000+0  21802-3 0  9992
2 53828  53.2166 173.3132 0001542  88.6766 271.4403 15.08850053112486
STARLINK-4759           
1 53829U 22114M   24267.46789416  .00019770  00000+0  12562-2 0  9994
2 53829  53.2143 173.3796 0001287  93.1127 267.0012 15.08856306112480
STARLINK-4761           
1 53830U 22114N   24267.44947445  .00001395  00000+0  10574-3 0  9998
2 53830  53.2148 173.2662 0001246  84.4039 275.7095 15.08842003112484
STARLINK-4649           
1 53831U 22114P   24267.46421030  .00002424  00000+0  17034-3 0  9990
2 53831  53.2189 173.3542 0001652  88.2292 271.8889 15.08844162112488
STARLINK-4747           
1 53832U 22114Q   24267.44210083  .00000462  00000+0  47102-4 0  9993
2 53832  53.2147 173.2243 0001400  89.4304 270.6849 15.08845260112481
STARLINK-4771           
1 53833U 22114R   24267.45411812  .00001014  00000+0  81828-4 0  9995
2 53833  53.2185 173.2944 0001943  87.2097 272.9117 15.08841863112487
STARLINK-4737           
1 53834U 22114S   24267.43473095  .00002002  00000+0  14380-3 0  9991
2 53834  53.2161 173.1748 0001296  95.8990 264.2150 15.08843159112482
